{
  "type": "FeatureCollection",
  "features": [
    {
      "type": "Feature",
      "properties": {
        "norad_id": 29268,
        "name": "ARIRANG-2 (KOMPSAT-2)",
        "group": "resource",
        "lat": -67.0406745468277,
        "lon": -169.20850709349574,
        "alt_km": 677.537498021311,
        "timestamp": "2025-12-09T04:51:47.164009+00:00",
        "meta_object_name": "ARIRANG-2 (KOMPSAT-2)",
        "meta_object_id": "2006-031A",
        "meta_epoch": "2025-12-08T19:55:38.129952",
        "meta_mean_motion": 14.64488921,
        "meta_eccentricity": 0.0013722,
        "meta_inclination": 97.8257,
        "meta_ra_of_asc_node": 171.4935,
        "meta_arg_of_pericenter": 322.4149,
        "meta_mean_anomaly": 167.5763,
        "meta_ephemeris_type": 0,
        "meta_classification_type": "U",
        "meta_norad_cat_id": 29268,
        "meta_element_set_no": 999,
        "meta_rev_at_epoch": 3361,
        "meta_bstar": 0.00015986,
        "meta_mean_motion_dot": 8.03e-06,
        "meta_mean_motion_ddot": 0,
        "tle_line1": "1 29268U 06031A   25342.83030243  .00000803  00000+0  15986-3 0  9998",
        "tle_line2": "2 29268  97.8257 171.4935 0013722 322.4149 167.5763 14.64488921 33612"
      },
      "geometry": {
        "type": "Point",
        "coordinates": [
          -169.20850709349574,
          -67.0406745468277
        ]
      }
    },
    {
      "type": "Feature",
      "properties": {
        "norad_id": 29709,
        "name": "LAPAN-TUBSAT",
        "group": "resource",
        "lat": -42.67083952076681,
        "lon": -19.1462286689076,
        "alt_km": 623.9841934988353,
        "timestamp": "2025-12-09T04:51:47.164020+00:00",
        "meta_object_name": "LAPAN-TUBSAT",
        "meta_object_id": "2007-001A",
        "meta_epoch": "2025-12-08T20:58:30.936288",
        "meta_mean_motion": 14.85662733,
        "meta_eccentricity": 0.0013684,
        "meta_inclination": 98.1253,
        "meta_ra_of_asc_node": 332.9505,
        "meta_arg_of_pericenter": 85.5707,
        "meta_mean_anomaly": 274.7071,
        "meta_ephemeris_type": 0,
        "meta_classification_type": "U",
        "meta_norad_cat_id": 29709,
        "meta_element_set_no": 999,
        "meta_rev_at_epoch": 2289,
        "meta_bstar": 0.00017797,
        "meta_mean_motion_dot": 1.487e-05,
        "meta_mean_motion_ddot": 0,
        "tle_line1": "1 29709U 07001A   25342.87396917  .00001487  00000+0  17797-3 0  9994",
        "tle_line2": "2 29709  98.1253 332.9505 0013684  85.5707 274.7071 14.85662733 22892"
      },
      "geometry": {
        "type": "Point",
        "coordinates": [
          -19.1462286689076,
          -42.67083952076681
        ]
      }
    },
    {
      "type": "Feature",
      "properties": {
        "norad_id": 31113,
        "name": "HAIYANG-1B",
        "group": "resource",
        "lat": 1.9702445316593264,
        "lon": 147.9157140671422,
        "alt_km": 797.850575331755,
        "timestamp": "2025-12-09T04:51:47.164042+00:00",
        "meta_object_name": "HAIYANG-1B",
        "meta_object_id": "2007-010A",
        "meta_epoch": "2025-12-08T19:38:41.233056",
        "meta_mean_motion": 14.30963232,
        "meta_eccentricity": 0.0014424,
        "meta_inclination": 98.3311,
        "meta_ra_of_asc_node": 327.2587,
        "meta_arg_of_pericenter": 48.8795,
        "meta_mean_anomaly": 311.3632,
        "meta_ephemeris_type": 0,
        "meta_classification_type": "U",
        "meta_norad_cat_id": 31113,
        "meta_element_set_no": 999,
        "meta_rev_at_epoch": 97340,
        "meta_bstar": 0.00011605,
        "meta_mean_motion_dot": 2.64e-06,
        "meta_mean_motion_ddot": 0,
        "tle_line1": "1 31113U 07010A   25342.81853279  .00000264  00000+0  11605-3 0  9993",
        "tle_line2": "2 31113  98.3311 327.2587 0014424  48.8795 311.3632 14.30963232973401"
      },
      "geometry": {
        "type": "Point",
        "coordinates": [
          147.9157140671422,
          1.9702445316593264
        ]
      }
    },
    {
      "type": "Feature",
      "properties": {
        "norad_id": 31598,
        "name": "COSMO-SKYMED 1",
        "group": "resource",
        "lat": 34.498438192339776,
        "lon": -5.956956907394865,
        "alt_km": 577.6008170101586,
        "timestamp": "2025-12-09T04:51:47.164064+00:00",
        "meta_object_name": "COSMO-SKYMED 1",
        "meta_object_id": "2007-023A",
        "meta_epoch": "2025-12-08T20:11:20.714208",
        "meta_mean_motion": 14.95720476,
        "meta_eccentricity": 0.0001053,
        "meta_inclination": 97.8834,
        "meta_ra_of_asc_node": 168.2152,
        "meta_arg_of_pericenter": 81.7095,
        "meta_mean_anomaly": 278.4245,
        "meta_ephemeris_type": 0,
        "meta_classification_type": "U",
        "meta_norad_cat_id": 31598,
        "meta_element_set_no": 999,
        "meta_rev_at_epoch": 132,
        "meta_bstar": 0.00056303,
        "meta_mean_motion_dot": 6.214e-05,
        "meta_mean_motion_ddot": 0,
        "tle_line1": "1 31598U 07023A   25342.84121197  .00006214  00000+0  56303-3 0  9999",
        "tle_line2": "2 31598  97.8834 168.2152 0001053  81.7095 278.4245 14.95720476  1324"
      },
      "geometry": {
        "type": "Point",
        "coordinates": [
          -5.956956907394865,
          34.498438192339776
        ]
      }
    },
    {
      "type": "Feature",
      "properties": {
        "norad_id": 31698,
        "name": "TERRASAR-X",
        "group": "resource",
        "lat": -43.06347520339145,
        "lon": 161.61392208378822,
        "alt_km": 515.940609719325,
        "timestamp": "2025-12-09T04:51:47.164083+00:00",
        "meta_object_name": "TERRASAR-X",
        "meta_object_id": "2007-026A",
        "meta_epoch": "2025-12-08T12:04:27.872832",
        "meta_mean_motion": 15.19158704,
        "meta_eccentricity": 0.0001724,
        "meta_inclination": 97.4451,
        "meta_ra_of_asc_node": 347.9445,
        "meta_arg_of_pericenter": 89.3855,
        "meta_mean_anomaly": 270.7577,
        "meta_ephemeris_type": 0,
        "meta_classification_type": "U",
        "meta_norad_cat_id": 31698,
        "meta_element_set_no": 999,
        "meta_rev_at_epoch": 2427,
        "meta_bstar": 0.00014009,
        "meta_mean_motion_dot": 2.877e-05,
        "meta_mean_motion_ddot": 0,
        "tle_line1": "1 31698U 07026A   25342.50310038  .00002877  00000+0  14009-3 0  9998",
        "tle_line2": "2 31698  97.4451 347.9445 0001724  89.3855 270.7577 15.19158704 24278"
      },
      "geometry": {
        "type": "Point",
        "coordinates": [
          161.61392208378822,
          -43.06347520339145
        ]
      }
    },
    {
      "type": "Feature",
      "properties": {
        "norad_id": 32060,
        "name": "WORLDVIEW-1 (WV-1)",
        "group": "resource",
        "lat": 24.775708612399477,
        "lon": -75.83450645382601,
        "alt_km": 491.07616182121365,
        "timestamp": "2025-12-09T04:51:47.164094+00:00",
        "meta_object_name": "WORLDVIEW-1 (WV-1)",
        "meta_object_id": "2007-041A",
        "meta_epoch": "2025-12-08T20:18:35.839296",
        "meta_mean_motion": 15.24589953,
        "meta_eccentricity": 7.77e-05,
        "meta_inclination": 97.3842,
        "meta_ra_of_asc_node": 100.3826,
        "meta_arg_of_pericenter": 102.4504,
        "meta_mean_anomaly": 257.682,
        "meta_ephemeris_type": 0,
        "meta_classification_type": "U",
        "meta_norad_cat_id": 32060,
        "meta_element_set_no": 999,
        "meta_rev_at_epoch": 1388,
        "meta_bstar": 0.00047468,
        "meta_mean_motion_dot": 0.00011638,
        "meta_mean_motion_ddot": 0,
        "tle_line1": "1 32060U 07041A   25342.84624814  .00011638  00000+0  47468-3 0  9996",
        "tle_line2": "2 32060  97.3842 100.3826 0000777 102.4504 257.6820 15.24589953 13884"
      },
      "geometry": {
        "type": "Point",
        "coordinates": [
          -75.83450645382601,
          24.775708612399477
        ]
      }
    },
    {
      "type": "Feature",
      "properties": {
        "norad_id": 32289,
        "name": "YAOGAN-3",
        "group": "resource",
        "lat": 67.99872793472989,
        "lon": -10.070942889478973,
        "alt_km": 590.8236684883805,
        "timestamp": "2025-12-09T04:51:47.164105+00:00",
        "meta_object_name": "YAOGAN-3",
        "meta_object_id": "2007-055A",
        "meta_epoch": "2025-12-08T20:29:35.938752",
        "meta_mean_motion": 14.89827271,
        "meta_eccentricity": 0.0001489,
        "meta_inclination": 97.8368,
        "meta_ra_of_asc_node": 9.5136,
        "meta_arg_of_pericenter": 71.8743,
        "meta_mean_anomaly": 288.2637,
        "meta_ephemeris_type": 0,
        "meta_classification_type": "U",
        "meta_norad_cat_id": 32289,
        "meta_element_set_no": 999,
        "meta_rev_at_epoch": 97751,
        "meta_bstar": 0.00015764,
        "meta_mean_motion_dot": 1.458e-05,
        "meta_mean_motion_ddot": 0,
        "tle_line1": "1 32289U 07055A   25342.85388818  .00001458  00000+0  15764-3 0  9999",
        "tle_line2": "2 32289  97.8368   9.5136 0001489  71.8743 288.2637 14.89827271977517"
      },
      "geometry": {
        "type": "Point",
        "coordinates": [
          -10.070942889478973,
          67.99872793472989
        ]
      }
    }
  ]
}